OPTICUBE 04             
1 41851U 16067D   25013.43875705  .00004847  00000+0  33898-3 0  9995
2 41851  98.0857 193.8620 0018119  71.7597 288.5598 15.05677846446843
AEROCUBE 8D             
1 41852U 16067E   25013.39793021  .00011224  00000+0  62290-3 0  9996
2 41852  98.1100 201.1144 0005090 111.3709 248.8064 15.13926653447132
AEROCUBE 8C             
1 41853U 16067F   25013.47839447  .00009813  00000+0  54433-3 0  9990
2 41853  98.0926 199.2866 0007685  51.0033 309.1880 15.13970606447132
PROMETHEUS 2-1          
1 41854U 16067G   25013.48980191  .00035574  00000+0  11210-2 0  9993
2 41854  98.0906 211.3335 0009808  49.1934 311.0155 15.32774936447760
PROMETHEUS 2-3          
1 41855U 16067H   25013.29920047  .00035281  00000+0  11153-2 0  9998
2 41855  98.0846 210.4123 0008461  58.9593 301.2476 15.32687504447730
CORVUS BC2              
1 42846U 17042X   25012.95495456  .00004175  00000+0  33030-3 0  9993
2 42846  97.3665 192.8744 0014338  72.8414 287.4380 15.01052758408875
CORVUS BC1              
1 42847U 17042Y   25013.42819222  .00005145  00000+0  40419-3 0  9995
2 42847  97.3683 193.7487 0013844  48.4288 311.8121 15.01228086408963
MIRATA                  
1 43015U 17073C   25013.26205108  .00046168  00000+0  13667-2 0  9995
2 43015  97.5647 263.8322 0120250 253.3440 105.4570 15.27795258388169
MAKERSAT 0              
1 43016U 17073D   25013.20406324  .00022772  00000+0  10611-2 0  9994
2 43016  97.5428 253.2865 0163503 288.6688  69.6851 15.08728167387464
SIRION PATHFINDER-2     
1 43759U 18099B   25013.60934129  .00006106  00000+0  40831-3 0  9991
2 43759  97.5020  70.1349 0008681 294.3815  65.6507 15.07288196334154
CORVUS BC4              
1 43767U 18099K   25013.57294463  .00005086  00000+0  35212-3 0  9999
2 43767  97.4827  66.5663 0009456 355.8184   4.2963 15.06066092334016
MOVE-II                 
1 43780U 18099Y   25013.61337365  .00045530  00000+0  12423-2 0  9994
2 43780  97.4909  83.1149 0004100 325.6233  34.4745 15.37291713334991
SPACEBEE-7              
1 43816U 18099BL  25013.77034617  .00022213  00000+0  89859-3 0  9996
2 43816  97.5197  82.3594 0006657 276.9357  83.1123 15.24705778334347
SHIELDS 1               
1 43850U 18104B   25013.75710083  .00025827  00000+0  46190-3 0  9992
2 43850  85.0213 139.0359 0008425 359.2150   0.9092 15.49821680338632
SONATE                  
1 44400U 19038Q   25013.57353948  .00048407  00000+0  73777-3 0  9994
2 44400  97.7106  25.8690 0013539  73.5446 286.7293 15.54237382306516
DUCHIFAT-3              
1 44854U 19089C   25013.79712326  .00030048  00000+0  97177-3 0  9998
2 44854  36.9470 197.6549 0010063  49.3687 310.7938 15.31173109280321
M2 PATHFINDER           
1 45727U 20037E   25013.44675078  .00005595  00000+0  45092-3 0  9995
2 45727  97.7815 195.3527 0012783 116.4464 243.8072 15.00255653247431
NETSAT-4                
1 46504U 20068U   25013.33469351  .00017472  00000+0  72559-3 0  9991
2 46504  97.8302 343.7065 0008821  11.9864 348.1580 15.23866035236072
NETSAT-3                
1 46505U 20068V   25012.88284802  .00013986  00000+0  59710-3 0  9997
2 46505  97.8289 342.4713 0008810  23.2689 336.8944 15.22982615235981
NETSAT-1                
1 46506U 20068W   25013.65785407  .00011606  00000+0  54696-3 0  9996
2 46506  97.8316 342.0179 0008309  31.7788 328.3946 15.19645130236019
NETSAT-2                
1 46507U 20068X   25013.36192741  .00016096  00000+0  67268-3 0  9995
2 46507  97.8293 343.3007 0007729  38.5834 321.5953 15.23678414236020
WILDTRACKCUBE-SIMBA     
1 47941U 21022K   25013.78419522  .00024459  00000+0  73818-3 0  9994
2 47941  97.4398 276.0943 0013880 113.6514 246.6188 15.34174235210608
GRBALPHA                
1 47959U 21022AD  25013.82002042  .00055292  00000+0  10667-2 0  9994
2 47959  97.4386 280.4362 0011979  97.3552 262.9060 15.47574389209713
BEESAT-8                
1 48085U 21022AP  25013.71394066  .00618702  14725-3  22808-2 0  9997
2 48085  97.4776 288.7711 0012191  90.1611 270.1058 15.88084292210444
LEDSAT                  
1 49069U 21073D   25013.14775127  .00035202  00000+0  84788-3 0  9995
2 49069  97.4116  90.7236 0013112 254.9477 105.0319 15.41093561188596
ROBUSTA-1F (MTCUBE 2)   
1 53109U 22080E   25012.26954478 -.00000003  00000+0  00000+0 0  9997
2 53109  70.1269 119.4217 0008421  42.6224 317.5088  6.42583972 58590
SITRO-AIS 5 (KATYS)     
1 57176U 23091L   25013.79446617  .00010116  00000+0  53821-3 0  9996
2 57176  97.5833  70.7791 0016730 116.6587 243.6360 15.15328868 85313
SITRO-AIS 6 (CHIRKIN)   
1 57192U 23091AC  25013.77506760  .00010039  00000+0  53490-3 0  9994
2 57192  97.5830  70.7892 0016516 116.5476 243.7451 15.15281855 85314
SITRO-AIS 8 (ANOKHIN)   
1 57193U 23091AD  25013.79657912  .00010973  00000+0  56907-3 0  9996
2 57193  97.5829  71.0551 0016171 116.6314 243.6577 15.16217647 85337
SITRO-AIS 7 (FARTUSHNIY)
1 57194U 23091AE  25013.78972345  .00010157  00000+0  54182-3 0  9993
2 57194  97.5829  70.7605 0016442 117.0264 243.2648 15.15238070 85319
SITRO-AIS 10 (BURDAEV)  
1 57199U 23091AK  25013.80116333  .00012630  00000+0  60879-3 0  9996
2 57199  97.5843  72.6895 0011820 103.2118 257.0435 15.18799589 85432
SITRO-AIS 9 (SHCHUKIN)  
1 57201U 23091AM  25013.80542996  .00012399  00000+0  59928-3 0  9993
2 57201  97.5839  72.6474 0011820 103.3509 256.9043 15.18710288 85431
SITRO-AIS 12 (SMIRENNIY)
1 57204U 23091AQ  25013.80682545  .00012495  00000+0  60048-3 0  9993
2 57204  97.5848  72.8674 0011772  97.9673 262.2898 15.18906271 85442
SITRO-AIS 11 (SHEFFER)  
1 57208U 23091AU  25013.77599346  .00013596  00000+0  65036-3 0  9994
2 57208  97.5844  72.8914 0011513  98.3329 261.9211 15.19048651 85440
VERONIKA                
1 58261U 23174F   25013.77508896  .00045099  00000+0  11134-2 0  9998
2 58261  97.4360  94.8382 0008046 214.4705 145.6020 15.40346198 65895
ROBUSTA-1E (ENSO)       
1 58470U 23185J   25013.80818381  .00033531  00000+0  87405-3 0  9992
2 58470  97.3978  86.0357 0008476 249.0287 111.0051 15.38744460 62341
SITRO-AIS 29            
1 59052U 24039B   25013.80925968  .00067302  00000+0  10976-2 0  9999
2 59052  97.4104 343.4679 0011766 156.7012 203.4776 15.52303831 48964
SITRO-AIS 30            
1 59053U 24039C   25013.84853765  .00058003  00000+0  97310-3 0  9995
2 59053  97.4100 343.4093 0011699 158.5911 201.5833 15.51550311 48952
SITRO-AIS 31            
1 59054U 24039D   25013.80359900  .00063846  00000+0  10485-2 0  9992
2 59054  97.4114 343.4695 0011499 160.5923 199.5769 15.52127085 48975
SITRO-AIS 33            
1 59055U 24039E   25013.58537011  .00061945  00000+0  10138-2 0  9992
2 59055  97.4103 343.3166 0011186 158.3385 201.8342 15.52234826 48938
SITRO-AIS 35            
1 59056U 24039F   25013.57730018  .00062765  00000+0  10236-2 0  9994
2 59056  97.4115 343.3212 0011041 161.0739 199.0926 15.52332055 48937
SITRO-AIS 32            
1 59057U 24039G   25013.48771910  .00068513  00000+0  11377-2 0  9995
2 59057  97.4111 343.1457 0011336 160.8460 199.3221 15.51799035 48911
SITRO-AIS 34            
1 59058U 24039H   25013.58515841  .00060144  00000+0  98660-3 0  9999
2 59058  97.4105 343.3194 0011126 158.4418 201.7305 15.52178490 48938
SITRO-AIS 36            
1 59059U 24039J   25013.56244135  .00062657  00000+0  10249-2 0  9990
2 59059  97.4097 343.3422 0010622 159.4858 200.6823 15.52253846 48934
SITRO-AIS 49            
1 59060U 24039K   25013.84637269  .00055834  00000+0  92790-3 0  9998
2 59060  97.4104 343.5789 0011202 158.3744 201.7983 15.51831163 48976
SITRO-AIS 50            
1 59061U 24039L   25013.58767988  .00060424  00000+0  96856-3 0  9990
2 59061  97.4092 343.4588 0010809 156.0712 204.1045 15.52826247 48942
SITRO-AIS 51            
1 59062U 24039M   25013.58191902  .00064629  00000+0  10273-2 0  9997
2 59062  97.4097 343.4629 0010844 156.1937 203.9819 15.53042133 48944
SITRO-AIS 52            
1 59063U 24039N   25013.81992045  .00063979  00000+0  10128-2 0  9997
2 59063  97.4109 343.7634 0010661 158.3519 201.8186 15.53161055 48988
SITRO-AIS 25            
1 59066U 24039R   25013.80891003  .00005923  00000+0  52524-3 0  9993
2 59066  95.3839 240.2308 0160689 337.0683  22.3417 14.86955454 47364
SITRO-AIS 26            
1 59067U 24039S   25013.82056144  .00005679  00000+0  50536-3 0  9994
2 59067  95.3840 240.2195 0160831 337.1473  22.2645 14.86819113 47361
SITRO-AIS 27            
1 59068U 24039T   25013.71178144  .00006187  00000+0  54696-3 0  9994
2 59068  95.3843 240.2190 0160169 337.1180  22.2958 14.87111350 47354
SITRO-AIS 28            
1 59071U 24039U   25013.77014708  .00006389  00000+0  56443-3 0  9995
2 59071  95.3844 240.2763 0159989 336.8563  22.5506 14.87152930 47366
GRBBETA                 
1 60237U 24128C   25013.56967359  .00004316  00000+0  35366-3 0  9995
2 60237  61.9913 231.2981 0035358  22.9393 337.3266 15.00369724 28127
OOV-CUBE (TUBSAT-30)    
1 60240U 24128F   25013.63185780  .00002850  00000+0  24943-3 0  9997
2 60240  61.9955 232.2110 0033778  18.6007 341.6308 14.98761761 28128
ROBUSTA-3A (MEDITERRAN*)
1 60243U 24128J   25013.61102259  .00006672  00000+0  52855-3 0  9997
2 60243  61.9881 231.4264 0033402  14.2144 345.9878 15.01062640 28133
